{"fetched_at":"2026-03-29T16:36:15Z","count":15609,"tles":[{"name":"STARLINK-5882","line1":"1 55936U 23037Y   26087.75897569  .00001612  00000+0  14289-3 0  9998","line2":"2 55936  70.0005 216.2083 0003283 265.8637  94.2147 14.98328271167339","category":"Starlink"}]}